{
  "norad_id": 68165,
  "name": "STARLINK-36971",
  "history": [
    {
      "epoch": "2026-03-28T22:00:01.999584Z",
      "apogee_km": 329.40832163288087,
      "perigee_km": 327.03091821111957,
      "latitude_deg": 44.64431080929815,
      "longitude_deg": 139.02052645252473,
      "height_km": 334.1270422528963,
      "semi_major_axis_km": 6706.356619922,
      "eccentricity": 0.00017725,
      "inclination_deg": 97.2846,
      "raan_deg": 108.1471,
      "arg_perigee_deg": 96.944,
      "mean_anomaly_deg": 38.0391,
      "mean_motion_rev_day": 15.80784963
    },
    {
      "epoch": "2026-03-29T03:30:30.416832Z",
      "apogee_km": 328.8120415930989,
      "perigee_km": 326.9879995235069,
      "latitude_deg": -4.75128462951507e-05,
      "longitude_deg": -130.7945985142391,
      "height_km": 331.31720522294296,
      "semi_major_axis_km": 6706.037020558303,
      "eccentricity": 0.000136,
      "inclination_deg": 97.2839,
      "raan_deg": 108.3886,
      "arg_perigee_deg": 105.4657,
      "mean_anomaly_deg": 254.6761,
      "mean_motion_rev_day": 15.80897971
    }
  ]
}